{"type": "FeatureCollection", "features": [{"type": "Feature", "geometry": {"type": "Point", "coordinates": [-96.33630403387481, 30.61618455969058]}, "properties": {"id": "hub-3004", "kind": "hub", "rack_type": "Shared Mobility (Hub Corral)", "typequantity": "1", "capacity": 50, "zone_id": "zone-001", "zone_dist_m": 21.3}}, {"type": "Feature", "geometry": {"type": "Point", "coordinates": [-96.3408260703388, 30.613672813391467]}, "properties": {"id": "bikeshare-2882", "kind": "bikeshare", "rack_type": "Shared Mobility HP", "typequantity": "8", "capacity": 80, "zone_id": "zone-002", "zone_dist_m": 68.7}}, {"type": "Feature", "geometry": {"type": "Point", "coordinates": [-96.34040176096065, 30.6206002358205]}, "properties": {"id": "bikeshare-2993", "kind": "bikeshare", "rack_type": "Shared Mobility HP", "typequantity": "10", "capacity": 100, "zone_id": "zone-003", "zone_dist_m": 103.3}}, {"type": "Feature", "geometry": {"type": "Point", "coordinates": [-96.34185651288145, 30.61897539408927]}, "properties": {"id": "bikeshare-2997", "kind": "bikeshare", "rack_type": "Shared Mobility HP", "typequantity": "2", "capacity": 20, "zone_id": "zone-004", "zone_dist_m": 72.5}}, {"type": "Feature", "geometry": {"type": "Point", "coordinates": [-96.33975493535458, 30.613825637699364]}, "properties": {"id": "bikeshare-3029", "kind": "bikeshare", "rack_type": "Shared Mobility HP", "typequantity": "12", "capacity": 120, "zone_id": "zone-002", "zone_dist_m": 65.9}}, {"type": "Feature", "geometry": {"type": "Point", "coordinates": [-96.3438486969442, 30.60921666210944]}, "properties": {"id": "bikeshare-3034", "kind": "bikeshare", "rack_type": "Shared Mobility HP", "typequantity": "6", "capacity": 60, "zone_id": "zone-005", "zone_dist_m": 32.2}}, {"type": "Feature", "geometry": {"type": "Point", "coordinates": [-96.34493662470243, 30.60877143955127]}, "properties": {"id": "bikeshare-3035", "kind": "bikeshare", "rack_type": "Shared Mobility HP", "typequantity": "4", "capacity": 40, "zone_id": "zone-005", "zone_dist_m": 104.1}}, {"type": "Feature", "geometry": {"type": "Point", "coordinates": [-96.34153567422427, 30.61923867139439]}, "properties": {"id": "regular-2769", "kind": "regular", "rack_type": "Coat Hanger", "typequantity": "4", "capacity": 40, "zone_id": "zone-004", "zone_dist_m": 50.5}}, {"type": "Feature", "geometry": {"type": "Point", "coordinates": [-96.33935890281643, 30.619902189807828]}, "properties": {"id": "regular-2770", "kind": "regular", "rack_type": "Coat Hanger", "typequantity": "6", "capacity": 60, "zone_id": "zone-003", "zone_dist_m": 30.8}}, {"type": "Feature", "geometry": {"type": "Point", "coordinates": [-96.33909140474779, 30.619392611468474]}, "properties": {"id": "regular-2771", "kind": "regular", "rack_type": "Coat Hanger", "typequantity": "9", "capacity": 90, "zone_id": "zone-003", "zone_dist_m": 92.7}}, {"type": "Feature", "geometry": {"type": "Point", "coordinates": [-96.3414379088911, 30.620710115736095]}, "properties": {"id": "regular-2772", "kind": "regular", "rack_type": "Coat Hanger", "typequantity": "5", "capacity": 50, "zone_id": "zone-006", "zone_dist_m": 11.9}}, {"type": "Feature", "geometry": {"type": "Point", "coordinates": [-96.34111583902741, 30.619004847424538]}, "properties": {"id": "regular-2773", "kind": "regular", "rack_type": "Coat Hanger", "typequantity": "1", "capacity": 10, "zone_id": "zone-004", "zone_dist_m": 2.8}}, {"type": "Feature", "geometry": {"type": "Point", "coordinates": [-96.340486890275, 30.619293339384313]}, "properties": {"id": "regular-2774", "kind": "regular", "rack_type": "Coat Hanger", "typequantity": "3", "capacity": 30, "zone_id": "zone-004", "zone_dist_m": 67.9}}, {"type": "Feature", "geometry": {"type": "Point", "coordinates": [-96.34058931175365, 30.618564502972294]}, "properties": {"id": "regular-2775", "kind": "regular", "rack_type": "Coat Hanger", "typequantity": "9", "capacity": 90, "zone_id": "zone-004", "zone_dist_m": 67.5}}, {"type": "Feature", "geometry": {"type": "Point", "coordinates": [-96.34111522346744, 30.61806591358508]}, "properties": {"id": "regular-2776", "kind": "regular", "rack_type": "Coat Hanger", "typequantity": "9", "capacity": 90, "zone_id": "zone-004", "zone_dist_m": 102.1}}, {"type": "Feature", "geometry": {"type": "Point", "coordinates": [-96.34197462894711, 30.618995936709325]}, "properties": {"id": "regular-2777", "kind": "regular", "rack_type": "Coat Hanger", "typequantity": "7", "capacity": 70, "zone_id": "zone-004", "zone_dist_m": 83.8}}, {"type": "Feature", "geometry": {"type": "Point", "coordinates": [-96.34268587350262, 30.61959077811906]}, "properties": {"id": "regular-2778", "kind": "regular", "rack_type": "Coat Hanger", "typequantity": "8", "capacity": 80, "zone_id": "zone-007", "zone_dist_m": 36.4}}, {"type": "Feature", "geometry": {"type": "Point", "coordinates": [-96.3399710338899, 30.61842920349527]}, "properties": {"id": "regular-2779", "kind": "regular", "rack_type": "Coat Hanger", "typequantity": "5", "capacity": 50, "zone_id": "zone-004", "zone_dist_m": 124.3}}, {"type": "Feature", "geometry": {"type": "Point", "coordinates": [-96.3417977694497, 30.628258944885943]}, "properties": {"id": "regular-2780", "kind": "regular", "rack_type": "Coat Hanger", "typequantity": "1", "capacity": 10, "zone_id": "zone-008", "zone_dist_m": 67.8}}, {"type": "Feature", "geometry": {"type": "Point", "coordinates": [-96.34143264105258, 30.62797570174502]}, "properties": {"id": "regular-2781", "kind": "regular", "rack_type": "Potato Masher", "typequantity": "1", "capacity": 3, "zone_id": "zone-008", "zone_dist_m": 38.9}}, {"type": "Feature", "geometry": {"type": "Point", "coordinates": [-96.3526142512464, 30.615346789484214]}, "properties": {"id": "regular-2782", "kind": "regular", "rack_type": "Coat Hanger", "typequantity": "1", "capacity": 10, "zone_id": "zone-009", "zone_dist_m": 68.9}}, {"type": "Feature", "geometry": {"type": "Point", "coordinates": [-96.35073291610405, 30.614766863461927]}, "properties": {"id": "regular-2783", "kind": "regular", "rack_type": "Coat Hanger", "typequantity": "1", "capacity": 10, "zone_id": "zone-010", "zone_dist_m": 0.0}}, {"type": "Feature", "geometry": {"type": "Point", "coordinates": [-96.35290825711871, 30.612437202746992]}, "properties": {"id": "regular-2785", "kind": "regular", "rack_type": "Coat Hanger", "typequantity": "2", "capacity": 20, "zone_id": "zone-011", "zone_dist_m": 73.9}}, {"type": "Feature", "geometry": {"type": "Point", "coordinates": [-96.35464370916493, 30.611408319353686]}, "properties": {"id": "regular-2786", "kind": "regular", "rack_type": "Coat Hanger", "typequantity": "2", "capacity": 20, "zone_id": "zone-012", "zone_dist_m": 0.0}}, {"type": "Feature", "geometry": {"type": "Point", "coordinates": [-96.35394891960489, 30.60368941667033]}, "properties": {"id": "regular-2787", "kind": "regular", "rack_type": "Coat Hanger", "typequantity": "2", "capacity": 20, "zone_id": "zone-013", "zone_dist_m": 0.0}}, {"type": "Feature", "geometry": {"type": "Point", "coordinates": [-96.35947027877698, 30.60199344144037]}, "properties": {"id": "regular-2788", "kind": "regular", "rack_type": "Potato Masher", "typequantity": "2", "capacity": 4, "zone_id": "zone-014", "zone_dist_m": 0.1}}, {"type": "Feature", "geometry": {"type": "Point", "coordinates": [-96.35381394952995, 30.596893244100194]}, "properties": {"id": "regular-2789", "kind": "regular", "rack_type": "Potato Masher", "typequantity": "2", "capacity": 20, "zone_id": "zone-015", "zone_dist_m": 60.7}}, {"type": "Feature", "geometry": {"type": "Point", "coordinates": [-96.35316542720842, 30.597833709625174]}, "properties": {"id": "regular-2790", "kind": "regular", "rack_type": "Coat Hanger", "typequantity": "2", "capacity": 20, "zone_id": "zone-015", "zone_dist_m": 60.9}}, {"type": "Feature", "geometry": {"type": "Point", "coordinates": [-96.34886977510071, 30.610040430226]}, "properties": {"id": "regular-2791", "kind": "regular", "rack_type": "Coat Hanger", "typequantity": "6", "capacity": 60, "zone_id": "zone-083", "zone_dist_m": 84.5}}, {"type": "Feature", "geometry": {"type": "Point", "coordinates": [-96.35012012018721, 30.609483799335205]}, "properties": {"id": "regular-2792", "kind": "regular", "rack_type": "Coat Hanger", "typequantity": "5", "capacity": 50, "zone_id": "zone-016", "zone_dist_m": 70.3}}, {"type": "Feature", "geometry": {"type": "Point", "coordinates": [-96.34523232026689, 30.617225329018094]}, "properties": {"id": "regular-2793", "kind": "regular", "rack_type": "Coat Hanger", "typequantity": "3", "capacity": 30, "zone_id": "zone-017", "zone_dist_m": 37.5}}, {"type": "Feature", "geometry": {"type": "Point", "coordinates": [-96.34659162105885, 30.615970097177392]}, "properties": {"id": "regular-2794", "kind": "regular", "rack_type": "Coat Hanger", "typequantity": "6", "capacity": 60, "zone_id": "zone-018", "zone_dist_m": 110.6}}, {"type": "Feature", "geometry": {"type": "Point", "coordinates": [-96.34630858874795, 30.61555684833335]}, "properties": {"id": "regular-2795", "kind": "regular", "rack_type": "Coat Hanger", "typequantity": "6", "capacity": 60, "zone_id": "zone-018", "zone_dist_m": 70.1}}, {"type": "Feature", "geometry": {"type": "Point", "coordinates": [-96.34521603556661, 30.61568938121591]}, "properties": {"id": "regular-2797", "kind": "regular", "rack_type": "Coat Hanger", "typequantity": "6", "capacity": 60, "zone_id": "zone-018", "zone_dist_m": 41.3}}, {"type": "Feature", "geometry": {"type": "Point", "coordinates": [-96.34498773468549, 30.61543321019842]}, "properties": {"id": "regular-2798", "kind": "regular", "rack_type": "Coat Hanger", "typequantity": "6", "capacity": 60, "zone_id": "zone-018", "zone_dist_m": 57.0}}, {"type": "Feature", "geometry": {"type": "Point", "coordinates": [-96.34470712294222, 30.61545550355521]}, "properties": {"id": "regular-2799", "kind": "regular", "rack_type": "Coat Hanger", "typequantity": "9", "capacity": 90, "zone_id": "zone-018", "zone_dist_m": 83.6}}, {"type": "Feature", "geometry": {"type": "Point", "coordinates": [-96.34517358751869, 30.61467047939549]}, "properties": {"id": "regular-2800", "kind": "regular", "rack_type": "Coat Hanger", "typequantity": "12", "capacity": 120, "zone_id": "zone-018", "zone_dist_m": 99.0}}, {"type": "Feature", "geometry": {"type": "Point", "coordinates": [-96.34531790940316, 30.6147903949489]}, "properties": {"id": "regular-2801", "kind": "regular", "rack_type": "Coat Hanger", "typequantity": "4", "capacity": 40, "zone_id": "zone-018", "zone_dist_m": 81.6}}, {"type": "Feature", "geometry": {"type": "Point", "coordinates": [-96.34404579021664, 30.616064079471933]}, "properties": {"id": "regular-2802", "kind": "regular", "rack_type": "Coat Hanger", "typequantity": "12", "capacity": 120, "zone_id": "zone-019", "zone_dist_m": 40.7}}, {"type": "Feature", "geometry": {"type": "Point", "coordinates": [-96.34436428619395, 30.617799700278624]}, "properties": {"id": "regular-2803", "kind": "regular", "rack_type": "Coat Hanger", "typequantity": "12", "capacity": 120, "zone_id": "zone-060", "zone_dist_m": 36.2}}, {"type": "Feature", "geometry": {"type": "Point", "coordinates": [-96.34186332454446, 30.617159742988207]}, "properties": {"id": "regular-2804", "kind": "regular", "rack_type": "Coat Hanger", "typequantity": "3", "capacity": 30, "zone_id": "zone-020", "zone_dist_m": 91.4}}, {"type": "Feature", "geometry": {"type": "Point", "coordinates": [-96.34139382412715, 30.61618170624257]}, "properties": {"id": "regular-2805", "kind": "regular", "rack_type": "Coat Hanger", "typequantity": "3", "capacity": 30, "zone_id": "zone-020", "zone_dist_m": 43.2}}, {"type": "Feature", "geometry": {"type": "Point", "coordinates": [-96.34187760247193, 30.61643631780525]}, "properties": {"id": "regular-2806", "kind": "regular", "rack_type": "Coat Hanger", "typequantity": "6", "capacity": 60, "zone_id": "zone-020", "zone_dist_m": 63.0}}, {"type": "Feature", "geometry": {"type": "Point", "coordinates": [-96.34228309059326, 30.616385484614135]}, "properties": {"id": "regular-2807", "kind": "regular", "rack_type": "Coat Hanger", "typequantity": "2", "capacity": 20, "zone_id": "zone-020", "zone_dist_m": 102.2}}, {"type": "Feature", "geometry": {"type": "Point", "coordinates": [-96.34068797317663, 30.617000540877406]}, "properties": {"id": "regular-2808", "kind": "regular", "rack_type": "Coat Hanger", "typequantity": "2", "capacity": 20, "zone_id": "zone-020", "zone_dist_m": 72.6}}, {"type": "Feature", "geometry": {"type": "Point", "coordinates": [-96.33891677408722, 30.617658023616737]}, "properties": {"id": "regular-2809", "kind": "regular", "rack_type": "Coat Hanger", "typequantity": "10", "capacity": 100, "zone_id": "zone-021", "zone_dist_m": 62.7}}, {"type": "Feature", "geometry": {"type": "Point", "coordinates": [-96.33857362022134, 30.617098545329117]}, "properties": {"id": "regular-2810", "kind": "regular", "rack_type": "Coat Hanger", "typequantity": "4", "capacity": 40, "zone_id": "zone-021", "zone_dist_m": 30.9}}, {"type": "Feature", "geometry": {"type": "Point", "coordinates": [-96.34027429454066, 30.616621915099888]}, "properties": {"id": "regular-2811", "kind": "regular", "rack_type": "Coat Hanger", "typequantity": "6", "capacity": 60, "zone_id": "zone-020", "zone_dist_m": 92.0}}, {"type": "Feature", "geometry": {"type": "Point", "coordinates": [-96.34086451755455, 30.61200633826474]}, "properties": {"id": "regular-2812", "kind": "regular", "rack_type": "Coat Hanger", "typequantity": "4", "capacity": 40, "zone_id": "zone-022", "zone_dist_m": 42.7}}, {"type": "Feature", "geometry": {"type": "Point", "coordinates": [-96.34067326835242, 30.612136757122787]}, "properties": {"id": "regular-2813", "kind": "regular", "rack_type": "Coat Hanger", "typequantity": "11", "capacity": 110, "zone_id": "zone-022", "zone_dist_m": 38.0}}, {"type": "Feature", "geometry": {"type": "Point", "coordinates": [-96.33902467732695, 30.611206229733597]}, "properties": {"id": "regular-2814", "kind": "regular", "rack_type": "Coat Hanger", "typequantity": "3", "capacity": 30, "zone_id": "zone-023", "zone_dist_m": 46.4}}, {"type": "Feature", "geometry": {"type": "Point", "coordinates": [-96.33551729282568, 30.61279823727728]}, "properties": {"id": "regular-2816", "kind": "regular", "rack_type": "Coat Hanger", "typequantity": "6", "capacity": 60, "zone_id": "zone-024", "zone_dist_m": 43.9}}, {"type": "Feature", "geometry": {"type": "Point", "coordinates": [-96.33628260871754, 30.612230162101522]}, "properties": {"id": "regular-2817", "kind": "regular", "rack_type": "Coat Hanger", "typequantity": "5", "capacity": 50, "zone_id": "zone-024", "zone_dist_m": 87.6}}, {"type": "Feature", "geometry": {"type": "Point", "coordinates": [-96.33768668812426, 30.613431702038117]}, "properties": {"id": "regular-2818", "kind": "regular", "rack_type": "Coat Hanger", "typequantity": "6", "capacity": 60, "zone_id": "zone-025", "zone_dist_m": 0.0}}, {"type": "Feature", "geometry": {"type": "Point", "coordinates": [-96.33555264189778, 30.61422732043309]}, "properties": {"id": "regular-2819", "kind": "regular", "rack_type": "Coat Hanger", "typequantity": "21", "capacity": 210, "zone_id": "zone-026", "zone_dist_m": 77.6}}, {"type": "Feature", "geometry": {"type": "Point", "coordinates": [-96.33586451784441, 30.614014234877185]}, "properties": {"id": "regular-2820", "kind": "regular", "rack_type": "Coat Hanger", "typequantity": "8", "capacity": 80, "zone_id": "zone-026", "zone_dist_m": 115.4}}, {"type": "Feature", "geometry": {"type": "Point", "coordinates": [-96.33724059119355, 30.614791286621255]}, "properties": {"id": "regular-2821", "kind": "regular", "rack_type": "Coat Hanger", "typequantity": "13", "capacity": 130, "zone_id": "zone-027", "zone_dist_m": 51.6}}, {"type": "Feature", "geometry": {"type": "Point", "coordinates": [-96.33732293741582, 30.615049576577785]}, "properties": {"id": "regular-2822", "kind": "regular", "rack_type": "Coat Hanger", "typequantity": "2", "capacity": 20, "zone_id": "zone-027", "zone_dist_m": 26.7}}, {"type": "Feature", "geometry": {"type": "Point", "coordinates": [-96.3365537296897, 30.61557052831219]}, "properties": {"id": "regular-2823", "kind": "regular", "rack_type": "Coat Hanger", "typequantity": "8", "capacity": 80, "zone_id": "zone-001", "zone_dist_m": 62.5}}, {"type": "Feature", "geometry": {"type": "Point", "coordinates": [-96.33592086933285, 30.615734663113304]}, "properties": {"id": "regular-2824", "kind": "regular", "rack_type": "Coat Hanger", "typequantity": "8", "capacity": 80, "zone_id": "zone-001", "zone_dist_m": 40.8}}, {"type": "Feature", "geometry": {"type": "Point", "coordinates": [-96.33619719366253, 30.61582603348619]}, "properties": {"id": "regular-2825", "kind": "regular", "rack_type": "Coat Hanger", "typequantity": "8", "capacity": 80, "zone_id": "zone-001", "zone_dist_m": 22.7}}, {"type": "Feature", "geometry": {"type": "Point", "coordinates": [-96.33499305302922, 30.614462858326146]}, "properties": {"id": "regular-2826", "kind": "regular", "rack_type": "Coat Hanger", "typequantity": "12", "capacity": 120, "zone_id": "zone-026", "zone_dist_m": 31.5}}, {"type": "Feature", "geometry": {"type": "Point", "coordinates": [-96.33440869690277, 30.61485057711867]}, "properties": {"id": "regular-2827", "kind": "regular", "rack_type": "Coat Hanger", "typequantity": "9", "capacity": 90, "zone_id": "zone-026", "zone_dist_m": 58.7}}, {"type": "Feature", "geometry": {"type": "Point", "coordinates": [-96.33446833414432, 30.615284351513907]}, "properties": {"id": "regular-2828", "kind": "regular", "rack_type": "Coat Hanger", "typequantity": "6", "capacity": 60, "zone_id": "zone-026", "zone_dist_m": 79.2}}, {"type": "Feature", "geometry": {"type": "Point", "coordinates": [-96.3347707861597, 30.615637524660638]}, "properties": {"id": "regular-2829", "kind": "regular", "rack_type": "Coat Hanger", "typequantity": "26", "capacity": 260, "zone_id": "zone-026", "zone_dist_m": 101.7}}, {"type": "Feature", "geometry": {"type": "Point", "coordinates": [-96.33518739556284, 30.61620397969348]}, "properties": {"id": "regular-2830", "kind": "regular", "rack_type": "Coat Hanger", "typequantity": "14", "capacity": 140, "zone_id": "zone-028", "zone_dist_m": 71.9}}, {"type": "Feature", "geometry": {"type": "Point", "coordinates": [-96.33423598735996, 30.616723104542494]}, "properties": {"id": "regular-2831", "kind": "regular", "rack_type": "Coat Hanger", "typequantity": "1", "capacity": 10, "zone_id": "zone-028", "zone_dist_m": 36.1}}, {"type": "Feature", "geometry": {"type": "Point", "coordinates": [-96.3354560985922, 30.616880603952126]}, "properties": {"id": "regular-2832", "kind": "regular", "rack_type": "Coat Hanger", "typequantity": "7", "capacity": 70, "zone_id": "zone-028", "zone_dist_m": 91.5}}, {"type": "Feature", "geometry": {"type": "Point", "coordinates": [-96.33640212174585, 30.61707794567329]}, "properties": {"id": "regular-2833", "kind": "regular", "rack_type": "Coat Hanger", "typequantity": "2", "capacity": 20, "zone_id": "zone-029", "zone_dist_m": 92.0}}, {"type": "Feature", "geometry": {"type": "Point", "coordinates": [-96.33698466730604, 30.61758173706734]}, "properties": {"id": "regular-2834", "kind": "regular", "rack_type": "Coat Hanger", "typequantity": "5", "capacity": 50, "zone_id": "zone-029", "zone_dist_m": 29.5}}, {"type": "Feature", "geometry": {"type": "Point", "coordinates": [-96.33780514637463, 30.616015784250624]}, "properties": {"id": "regular-2835", "kind": "regular", "rack_type": "Coat Hanger", "typequantity": "4", "capacity": 40, "zone_id": "zone-027", "zone_dist_m": 98.1}}, {"type": "Feature", "geometry": {"type": "Point", "coordinates": [-96.34068110026888, 30.614515652587617]}, "properties": {"id": "regular-2837", "kind": "regular", "rack_type": "Coat Hanger", "typequantity": "4", "capacity": 40, "zone_id": "zone-002", "zone_dist_m": 53.5}}, {"type": "Feature", "geometry": {"type": "Point", "coordinates": [-96.33941812090468, 30.614394890437342]}, "properties": {"id": "regular-2838", "kind": "regular", "rack_type": "Coat Hanger", "typequantity": "4", "capacity": 40, "zone_id": "zone-002", "zone_dist_m": 93.4}}, {"type": "Feature", "geometry": {"type": "Point", "coordinates": [-96.3365548954252, 30.61910379964107]}, "properties": {"id": "regular-2839", "kind": "regular", "rack_type": "Coat Hanger", "typequantity": "1", "capacity": 10, "zone_id": "zone-077", "zone_dist_m": 79.2}}, {"type": "Feature", "geometry": {"type": "Point", "coordinates": [-96.33768750076953, 30.61914701454692]}, "properties": {"id": "regular-2840", "kind": "regular", "rack_type": "U", "typequantity": "15", "capacity": 30, "zone_id": "zone-030", "zone_dist_m": 8.2}}, {"type": "Feature", "geometry": {"type": "Point", "coordinates": [-96.33891415616901, 30.61874771324717]}, "properties": {"id": "regular-2841", "kind": "regular", "rack_type": "Coat Hanger", "typequantity": "5", "capacity": 50, "zone_id": "zone-031", "zone_dist_m": 67.9}}, {"type": "Feature", "geometry": {"type": "Point", "coordinates": [-96.33827875007302, 30.614820413115275]}, "properties": {"id": "regular-2842", "kind": "regular", "rack_type": "Coat Hanger", "typequantity": "13", "capacity": 130, "zone_id": "zone-027", "zone_dist_m": 77.3}}, {"type": "Feature", "geometry": {"type": "Point", "coordinates": [-96.34396083073302, 30.616810197192212]}, "properties": {"id": "regular-2843", "kind": "regular", "rack_type": "Coat Hanger", "typequantity": "7", "capacity": 70, "zone_id": "zone-019", "zone_dist_m": 46.9}}, {"type": "Feature", "geometry": {"type": "Point", "coordinates": [-96.34168737179682, 30.617145036684796]}, "properties": {"id": "regular-2844", "kind": "regular", "rack_type": "Coat Hanger", "typequantity": "3", "capacity": 30, "zone_id": "zone-020", "zone_dist_m": 79.8}}, {"type": "Feature", "geometry": {"type": "Point", "coordinates": [-96.3558962613622, 30.604695686509732]}, "properties": {"id": "regular-2845", "kind": "regular", "rack_type": "Coat Hanger", "typequantity": "1", "capacity": 10, "zone_id": "zone-032", "zone_dist_m": 0.0}}, {"type": "Feature", "geometry": {"type": "Point", "coordinates": [-96.3595643904847, 30.60028042846123]}, "properties": {"id": "regular-2846", "kind": "regular", "rack_type": "Fence", "typequantity": "1", "capacity": 7, "zone_id": "zone-033", "zone_dist_m": 0.1}}, {"type": "Feature", "geometry": {"type": "Point", "coordinates": [-96.34371588673909, 30.60915484010266]}, "properties": {"id": "regular-2848", "kind": "regular", "rack_type": "Coat Hanger", "typequantity": "6", "capacity": 60, "zone_id": "zone-005", "zone_dist_m": 29.0}}, {"type": "Feature", "geometry": {"type": "Point", "coordinates": [-96.3399309423606, 30.614437742557058]}, "properties": {"id": "regular-2849", "kind": "regular", "rack_type": "Coat Hanger", "typequantity": "15", "capacity": 150, "zone_id": "zone-002", "zone_dist_m": 52.3}}, {"type": "Feature", "geometry": {"type": "Point", "coordinates": [-96.35701134183235, 30.622479499020134]}, "properties": {"id": "regular-2850", "kind": "regular", "rack_type": "Coat Hanger", "typequantity": "1", "capacity": 10, "zone_id": "zone-034", "zone_dist_m": 40.6}}, {"type": "Feature", "geometry": {"type": "Point", "coordinates": [-96.35766541065136, 30.622011987996256]}, "properties": {"id": "regular-2851", "kind": "regular", "rack_type": "Coat Hanger", "typequantity": "1", "capacity": 10, "zone_id": "zone-034", "zone_dist_m": 40.7}}, {"type": "Feature", "geometry": {"type": "Point", "coordinates": [-96.35494438585442, 30.61759072461511]}, "properties": {"id": "regular-2852", "kind": "regular", "rack_type": "Potato Masher", "typequantity": "1", "capacity": 4, "zone_id": "zone-035", "zone_dist_m": 50.7}}, {"type": "Feature", "geometry": {"type": "Point", "coordinates": [-96.35242475974732, 30.616610763923454]}, "properties": {"id": "regular-2853", "kind": "regular", "rack_type": "Coat Hanger", "typequantity": "1", "capacity": 10, "zone_id": "zone-009", "zone_dist_m": 72.8}}, {"type": "Feature", "geometry": {"type": "Point", "coordinates": [-96.35362104949834, 30.613617116342716]}, "properties": {"id": "regular-2855", "kind": "regular", "rack_type": "Coat Hanger", "typequantity": "1", "capacity": 10, "zone_id": "zone-011", "zone_dist_m": 73.9}}, {"type": "Feature", "geometry": {"type": "Point", "coordinates": [-96.35771753337895, 30.60635410421276]}, "properties": {"id": "regular-2856", "kind": "regular", "rack_type": "Coat Hanger", "typequantity": "1", "capacity": 10, "zone_id": "zone-036", "zone_dist_m": 109.5}}, {"type": "Feature", "geometry": {"type": "Point", "coordinates": [-96.35897001423119, 30.60559101566044]}, "properties": {"id": "regular-2857", "kind": "regular", "rack_type": "Coat Hanger", "typequantity": "3", "capacity": 30, "zone_id": "zone-036", "zone_dist_m": 53.2}}, {"type": "Feature", "geometry": {"type": "Point", "coordinates": [-96.35366845840755, 30.609900416721143]}, "properties": {"id": "regular-2858", "kind": "regular", "rack_type": "Potato Masher", "typequantity": "3", "capacity": 12, "zone_id": "zone-037", "zone_dist_m": 56.3}}, {"type": "Feature", "geometry": {"type": "Point", "coordinates": [-96.35038520919076, 30.610654916992228]}, "properties": {"id": "regular-2860", "kind": "regular", "rack_type": "Coat Hanger", "typequantity": "7", "capacity": 70, "zone_id": "zone-016", "zone_dist_m": 69.9}}, {"type": "Feature", "geometry": {"type": "Point", "coordinates": [-96.34787731629386, 30.610902838191823]}, "properties": {"id": "regular-2861", "kind": "regular", "rack_type": "Coat Hanger", "typequantity": "9", "capacity": 90, "zone_id": "zone-038", "zone_dist_m": 73.5}}, {"type": "Feature", "geometry": {"type": "Point", "coordinates": [-96.3418352113136, 30.604627712627217]}, "properties": {"id": "regular-2862", "kind": "regular", "rack_type": "Coat Hanger", "typequantity": "3", "capacity": 30, "zone_id": "zone-039", "zone_dist_m": 26.7}}, {"type": "Feature", "geometry": {"type": "Point", "coordinates": [-96.34544496696259, 30.616257928989945]}, "properties": {"id": "regular-2863", "kind": "regular", "rack_type": "Coat Hanger", "typequantity": "3", "capacity": 30, "zone_id": "zone-017", "zone_dist_m": 71.9}}, {"type": "Feature", "geometry": {"type": "Point", "coordinates": [-96.34554924642501, 30.616608393605727]}, "properties": {"id": "regular-2864", "kind": "regular", "rack_type": "Coat Hanger", "typequantity": "15", "capacity": 150, "zone_id": "zone-017", "zone_dist_m": 39.3}}, {"type": "Feature", "geometry": {"type": "Point", "coordinates": [-96.34526600061925, 30.616722668378024]}, "properties": {"id": "regular-2865", "kind": "regular", "rack_type": "Potato Masher", "typequantity": "2", "capacity": 10, "zone_id": "zone-017", "zone_dist_m": 19.5}}, {"type": "Feature", "geometry": {"type": "Point", "coordinates": [-96.34666710392852, 30.615623630988907]}, "properties": {"id": "regular-2866", "kind": "regular", "rack_type": "Coat Hanger", "typequantity": "6", "capacity": 60, "zone_id": "zone-018", "zone_dist_m": 105.1}}, {"type": "Feature", "geometry": {"type": "Point", "coordinates": [-96.3464008898979, 30.616854841015282]}, "properties": {"id": "regular-2867", "kind": "regular", "rack_type": "Coat Hanger", "typequantity": "6", "capacity": 60, "zone_id": "zone-017", "zone_dist_m": 104.8}}, {"type": "Feature", "geometry": {"type": "Point", "coordinates": [-96.34526763039092, 30.617198006116524]}, "properties": {"id": "regular-2868", "kind": "regular", "rack_type": "Fence", "typequantity": "1", "capacity": 30, "zone_id": "zone-017", "zone_dist_m": 34.0}}, {"type": "Feature", "geometry": {"type": "Point", "coordinates": [-96.3436349764795, 30.6185370146715]}, "properties": {"id": "regular-2869", "kind": "regular", "rack_type": "Coat Hanger", "typequantity": "2", "capacity": 20, "zone_id": "zone-060", "zone_dist_m": 104.7}}, {"type": "Feature", "geometry": {"type": "Point", "coordinates": [-96.34949404880442, 30.602220258360575]}, "properties": {"id": "regular-2871", "kind": "regular", "rack_type": "Coat Hanger", "typequantity": "2", "capacity": 20, "zone_id": "zone-040", "zone_dist_m": 55.1}}, {"type": "Feature", "geometry": {"type": "Point", "coordinates": [-96.34867917883238, 30.601519488978177]}, "properties": {"id": "regular-2872", "kind": "regular", "rack_type": "Coat Hanger", "typequantity": "2", "capacity": 20, "zone_id": "zone-040", "zone_dist_m": 55.2}}, {"type": "Feature", "geometry": {"type": "Point", "coordinates": [-96.35760519845212, 30.60875986516435]}, "properties": {"id": "regular-2873", "kind": "regular", "rack_type": "Coat Hanger", "typequantity": "1", "capacity": 10, "zone_id": "zone-041", "zone_dist_m": 0.0}}, {"type": "Feature", "geometry": {"type": "Point", "coordinates": [-96.3386030727597, 30.60886576145565]}, "properties": {"id": "regular-2875", "kind": "regular", "rack_type": "DP", "typequantity": "1", "capacity": 5, "zone_id": "zone-042", "zone_dist_m": 24.3}}, {"type": "Feature", "geometry": {"type": "Point", "coordinates": [-96.34130480188772, 30.613009074373256]}, "properties": {"id": "regular-2876", "kind": "regular", "rack_type": "Coat Hanger", "typequantity": "25", "capacity": 250, "zone_id": "zone-022", "zone_dist_m": 77.4}}, {"type": "Feature", "geometry": {"type": "Point", "coordinates": [-96.34321874787001, 30.616980421471098]}, "properties": {"id": "regular-2877", "kind": "regular", "rack_type": "Coat Hanger", "typequantity": "13", "capacity": 130, "zone_id": "zone-019", "zone_dist_m": 89.8}}, {"type": "Feature", "geometry": {"type": "Point", "coordinates": [-96.3428896480523, 30.61514062423074]}, "properties": {"id": "regular-2878", "kind": "regular", "rack_type": "U", "typequantity": "50", "capacity": 100, "zone_id": "zone-043", "zone_dist_m": 36.1}}, {"type": "Feature", "geometry": {"type": "Point", "coordinates": [-96.34305258359034, 30.61570741533583]}, "properties": {"id": "regular-2879", "kind": "regular", "rack_type": "Coat Hanger", "typequantity": "1", "capacity": 10, "zone_id": "zone-043", "zone_dist_m": 35.4}}, {"type": "Feature", "geometry": {"type": "Point", "coordinates": [-96.34238465273374, 30.615394115025456]}, "properties": {"id": "regular-2880", "kind": "regular", "rack_type": "Coat Hanger", "typequantity": "4", "capacity": 40, "zone_id": "zone-043", "zone_dist_m": 42.3}}, {"type": "Feature", "geometry": {"type": "Point", "coordinates": [-96.34150095307899, 30.61465032915603]}, "properties": {"id": "regular-2881", "kind": "regular", "rack_type": "Coat Hanger", "typequantity": "2", "capacity": 20, "zone_id": "zone-002", "zone_dist_m": 124.8}}, {"type": "Feature", "geometry": {"type": "Point", "coordinates": [-96.3429518204152, 30.619759767859076]}, "properties": {"id": "regular-2883", "kind": "regular", "rack_type": "Coat Hanger", "typequantity": "1", "capacity": 10, "zone_id": "zone-007", "zone_dist_m": 27.5}}, {"type": "Feature", "geometry": {"type": "Point", "coordinates": [-96.34298302678958, 30.619927848172328]}, "properties": {"id": "regular-2884", "kind": "regular", "rack_type": "Coat Hanger", "typequantity": "1", "capacity": 10, "zone_id": "zone-007", "zone_dist_m": 44.7}}, {"type": "Feature", "geometry": {"type": "Point", "coordinates": [-96.34025991936736, 30.618291522674532]}, "properties": {"id": "regular-2885", "kind": "regular", "rack_type": "Coat Hanger", "typequantity": "2", "capacity": 20, "zone_id": "zone-004", "zone_dist_m": 111.2}}, {"type": "Feature", "geometry": {"type": "Point", "coordinates": [-96.33865997331803, 30.616533870155294]}, "properties": {"id": "regular-2886", "kind": "regular", "rack_type": "Coat Hanger", "typequantity": "8", "capacity": 80, "zone_id": "zone-021", "zone_dist_m": 66.3}}, {"type": "Feature", "geometry": {"type": "Point", "coordinates": [-96.33813766961771, 30.615829871052675]}, "properties": {"id": "regular-2887", "kind": "regular", "rack_type": "Coat Hanger", "typequantity": "5", "capacity": 50, "zone_id": "zone-027", "zone_dist_m": 92.3}}, {"type": "Feature", "geometry": {"type": "Point", "coordinates": [-96.3383408272032, 30.61670882029139]}, "properties": {"id": "regular-2888", "kind": "regular", "rack_type": "Coat Hanger", "typequantity": "2", "capacity": 20, "zone_id": "zone-021", "zone_dist_m": 68.3}}, {"type": "Feature", "geometry": {"type": "Point", "coordinates": [-96.33850588487371, 30.616857944388627]}, "properties": {"id": "regular-2889", "kind": "regular", "rack_type": "Coat Hanger", "typequantity": "3", "capacity": 30, "zone_id": "zone-021", "zone_dist_m": 45.7}}, {"type": "Feature", "geometry": {"type": "Point", "coordinates": [-96.33893843580798, 30.617435824972414]}, "properties": {"id": "regular-2890", "kind": "regular", "rack_type": "Coat Hanger", "typequantity": "2", "capacity": 20, "zone_id": "zone-021", "zone_dist_m": 38.2}}, {"type": "Feature", "geometry": {"type": "Point", "coordinates": [-96.3343828578476, 30.612225064273538]}, "properties": {"id": "regular-2891", "kind": "regular", "rack_type": "Coat Hanger", "typequantity": "4", "capacity": 40, "zone_id": "zone-024", "zone_dist_m": 99.1}}, {"type": "Feature", "geometry": {"type": "Point", "coordinates": [-96.34189603397994, 30.62008667329036]}, "properties": {"id": "regular-2892", "kind": "regular", "rack_type": "Coat Hanger", "typequantity": "4", "capacity": 40, "zone_id": "zone-006", "zone_dist_m": 71.1}}, {"type": "Feature", "geometry": {"type": "Point", "coordinates": [-96.33979597273218, 30.619961393698123]}, "properties": {"id": "regular-2894", "kind": "regular", "rack_type": "Coat Hanger", "typequantity": "7", "capacity": 70, "zone_id": "zone-003", "zone_dist_m": 40.8}}, {"type": "Feature", "geometry": {"type": "Point", "coordinates": [-96.34070990009384, 30.619580783743043]}, "properties": {"id": "regular-2895", "kind": "regular", "rack_type": "Coat Hanger", "typequantity": "6", "capacity": 60, "zone_id": "zone-004", "zone_dist_m": 76.1}}, {"type": "Feature", "geometry": {"type": "Point", "coordinates": [-96.33739088010219, 30.619034863584513]}, "properties": {"id": "regular-2896", "kind": "regular", "rack_type": "DP", "typequantity": "3", "capacity": 11, "zone_id": "zone-030", "zone_dist_m": 30.9}}, {"type": "Feature", "geometry": {"type": "Point", "coordinates": [-96.33770645110336, 30.619037930114764]}, "properties": {"id": "regular-2897", "kind": "regular", "rack_type": "DP", "typequantity": "6", "capacity": 34, "zone_id": "zone-030", "zone_dist_m": 4.2}}, {"type": "Feature", "geometry": {"type": "Point", "coordinates": [-96.33798726726367, 30.618881692523836]}, "properties": {"id": "regular-2898", "kind": "regular", "rack_type": "DP", "typequantity": "4", "capacity": 24, "zone_id": "zone-030", "zone_dist_m": 34.2}}, {"type": "Feature", "geometry": {"type": "Point", "coordinates": [-96.3380108939203, 30.61916585499375]}, "properties": {"id": "regular-2899", "kind": "regular", "rack_type": "DP", "typequantity": "3", "capacity": 11, "zone_id": "zone-030", "zone_dist_m": 30.5}}, {"type": "Feature", "geometry": {"type": "Point", "coordinates": [-96.33809777040672, 30.619261827222612]}, "properties": {"id": "regular-2900", "kind": "regular", "rack_type": "DP", "typequantity": "3", "capacity": 9, "zone_id": "zone-030", "zone_dist_m": 42.5}}, {"type": "Feature", "geometry": {"type": "Point", "coordinates": [-96.33841087537375, 30.61946120501803]}, "properties": {"id": "regular-2901", "kind": "regular", "rack_type": "U", "typequantity": "6", "capacity": 12, "zone_id": "zone-030", "zone_dist_m": 79.6}}, {"type": "Feature", "geometry": {"type": "Point", "coordinates": [-96.33723093018098, 30.61762187934059]}, "properties": {"id": "regular-2902", "kind": "regular", "rack_type": "Coat Hanger", "typequantity": "2", "capacity": 20, "zone_id": "zone-029", "zone_dist_m": 18.5}}, {"type": "Feature", "geometry": {"type": "Point", "coordinates": [-96.33754336889263, 30.61739856064108]}, "properties": {"id": "regular-2903", "kind": "regular", "rack_type": "Coat Hanger", "typequantity": "2", "capacity": 20, "zone_id": "zone-029", "zone_dist_m": 28.2}}, {"type": "Feature", "geometry": {"type": "Point", "coordinates": [-96.33769786351425, 30.617295416598232]}, "properties": {"id": "regular-2904", "kind": "regular", "rack_type": "Coat Hanger", "typequantity": "4", "capacity": 40, "zone_id": "zone-029", "zone_dist_m": 45.9}}, {"type": "Feature", "geometry": {"type": "Point", "coordinates": [-96.33821365328856, 30.618078749441764]}, "properties": {"id": "regular-2905", "kind": "regular", "rack_type": "Coat Hanger", "typequantity": "2", "capacity": 20, "zone_id": "zone-031", "zone_dist_m": 37.5}}, {"type": "Feature", "geometry": {"type": "Point", "coordinates": [-96.33834456416488, 30.617996743780427]}, "properties": {"id": "regular-2906", "kind": "regular", "rack_type": "Coat Hanger", "typequantity": "2", "capacity": 20, "zone_id": "zone-031", "zone_dist_m": 45.0}}, {"type": "Feature", "geometry": {"type": "Point", "coordinates": [-96.33754140446194, 30.618587421845316]}, "properties": {"id": "regular-2907", "kind": "regular", "rack_type": "DP", "typequantity": "8", "capacity": 45, "zone_id": "zone-030", "zone_dist_m": 56.7}}, {"type": "Feature", "geometry": {"type": "Point", "coordinates": [-96.33785844053392, 30.61839174907079]}, "properties": {"id": "regular-2908", "kind": "regular", "rack_type": "DP", "typequantity": "1", "capacity": 4, "zone_id": "zone-031", "zone_dist_m": 45.1}}, {"type": "Feature", "geometry": {"type": "Point", "coordinates": [-96.34264721485779, 30.626087347650657]}, "properties": {"id": "regular-2909", "kind": "regular", "rack_type": "Potato Masher", "typequantity": "1", "capacity": 2, "zone_id": "zone-044", "zone_dist_m": 43.7}}, {"type": "Feature", "geometry": {"type": "Point", "coordinates": [-96.34287820867004, 30.626286609454688]}, "properties": {"id": "regular-2910", "kind": "regular", "rack_type": "Potato Masher", "typequantity": "1", "capacity": 2, "zone_id": "zone-044", "zone_dist_m": 58.9}}, {"type": "Feature", "geometry": {"type": "Point", "coordinates": [-96.34311131334344, 30.626473686926055]}, "properties": {"id": "regular-2911", "kind": "regular", "rack_type": "Potato Masher", "typequantity": "1", "capacity": 2, "zone_id": "zone-044", "zone_dist_m": 83.4}}, {"type": "Feature", "geometry": {"type": "Point", "coordinates": [-96.34240744058566, 30.625888210040703]}, "properties": {"id": "regular-2912", "kind": "regular", "rack_type": "Potato Masher", "typequantity": "1", "capacity": 2, "zone_id": "zone-044", "zone_dist_m": 47.8}}, {"type": "Feature", "geometry": {"type": "Point", "coordinates": [-96.3421445873334, 30.625676236134474]}, "properties": {"id": "regular-2913", "kind": "regular", "rack_type": "Potato Masher", "typequantity": "1", "capacity": 2, "zone_id": "zone-044", "zone_dist_m": 70.3}}, {"type": "Feature", "geometry": {"type": "Point", "coordinates": [-96.3418731723973, 30.625445139735127]}, "properties": {"id": "regular-2914", "kind": "regular", "rack_type": "Potato Masher", "typequantity": "1", "capacity": 2, "zone_id": "zone-044", "zone_dist_m": 102.1}}, {"type": "Feature", "geometry": {"type": "Point", "coordinates": [-96.34191762877877, 30.625872910855943]}, "properties": {"id": "regular-2915", "kind": "regular", "rack_type": "Potato Masher", "typequantity": "1", "capacity": 2, "zone_id": "zone-044", "zone_dist_m": 57.9}}, {"type": "Feature", "geometry": {"type": "Point", "coordinates": [-96.34164656055461, 30.62566003997253]}, "properties": {"id": "regular-2916", "kind": "regular", "rack_type": "Potato Masher", "typequantity": "1", "capacity": 2, "zone_id": "zone-044", "zone_dist_m": 92.4}}, {"type": "Feature", "geometry": {"type": "Point", "coordinates": [-96.34230556045215, 30.62864711707358]}, "properties": {"id": "regular-2917", "kind": "regular", "rack_type": "Coat Hanger", "typequantity": "1", "capacity": 10, "zone_id": "zone-008", "zone_dist_m": 126.9}}, {"type": "Feature", "geometry": {"type": "Point", "coordinates": [-96.34168772550504, 30.62820063117372]}, "properties": {"id": "regular-2918", "kind": "regular", "rack_type": "Potato Masher", "typequantity": "1", "capacity": 3, "zone_id": "zone-008", "zone_dist_m": 59.5}}, {"type": "Feature", "geometry": {"type": "Point", "coordinates": [-96.34136640270417, 30.627778642395313]}, "properties": {"id": "regular-2919", "kind": "regular", "rack_type": "Potato Masher", "typequantity": "2", "capacity": 12, "zone_id": "zone-008", "zone_dist_m": 27.6}}, {"type": "Feature", "geometry": {"type": "Point", "coordinates": [-96.34151589714051, 30.62765754901565]}, "properties": {"id": "regular-2920", "kind": "regular", "rack_type": "Potato Masher", "typequantity": "1", "capacity": 3, "zone_id": "zone-008", "zone_dist_m": 10.5}}, {"type": "Feature", "geometry": {"type": "Point", "coordinates": [-96.34091569208648, 30.627614887079254]}, "properties": {"id": "regular-2921", "kind": "regular", "rack_type": "Potato Masher", "typequantity": "8", "capacity": 64, "zone_id": "zone-008", "zone_dist_m": 68.1}}, {"type": "Feature", "geometry": {"type": "Point", "coordinates": [-96.34111803951342, 30.627575275715785]}, "properties": {"id": "regular-2922", "kind": "regular", "rack_type": "Potato Masher", "typequantity": "3", "capacity": 13, "zone_id": "zone-008", "zone_dist_m": 49.6}}, {"type": "Feature", "geometry": {"type": "Point", "coordinates": [-96.34149164115802, 30.62724510057213]}, "properties": {"id": "regular-2923", "kind": "regular", "rack_type": "Potato Masher", "typequantity": "1", "capacity": 2, "zone_id": "zone-008", "zone_dist_m": 48.7}}, {"type": "Feature", "geometry": {"type": "Point", "coordinates": [-96.3417402087003, 30.62745121161715]}, "properties": {"id": "regular-2924", "kind": "regular", "rack_type": "Potato Masher", "typequantity": "1", "capacity": 2, "zone_id": "zone-008", "zone_dist_m": 26.5}}, {"type": "Feature", "geometry": {"type": "Point", "coordinates": [-96.34193204390418, 30.627483527854746]}, "properties": {"id": "regular-2925", "kind": "regular", "rack_type": "Potato Masher", "typequantity": "2", "capacity": 12, "zone_id": "zone-008", "zone_dist_m": 35.8}}, {"type": "Feature", "geometry": {"type": "Point", "coordinates": [-96.34222900967347, 30.62771247067882]}, "properties": {"id": "regular-2926", "kind": "regular", "rack_type": "Potato Masher", "typequantity": "2", "capacity": 12, "zone_id": "zone-008", "zone_dist_m": 58.0}}, {"type": "Feature", "geometry": {"type": "Point", "coordinates": [-96.34207402950972, 30.62803166150702]}, "properties": {"id": "regular-2927", "kind": "regular", "rack_type": "Potato Masher", "typequantity": "2", "capacity": 12, "zone_id": "zone-008", "zone_dist_m": 59.0}}, {"type": "Feature", "geometry": {"type": "Point", "coordinates": [-96.3417026925965, 30.62776488811787]}, "properties": {"id": "regular-2928", "kind": "regular", "rack_type": "Potato Masher", "typequantity": "2", "capacity": 4, "zone_id": "zone-008", "zone_dist_m": 13.1}}, {"type": "Feature", "geometry": {"type": "Point", "coordinates": [-96.34131872682872, 30.62734156465289]}, "properties": {"id": "regular-2929", "kind": "regular", "rack_type": "Potato Masher", "typequantity": "1", "capacity": 2, "zone_id": "zone-008", "zone_dist_m": 46.7}}, {"type": "Feature", "geometry": {"type": "Point", "coordinates": [-96.3427522496818, 30.626894499275974]}, "properties": {"id": "regular-2930", "kind": "regular", "rack_type": "Potato Masher", "typequantity": "1", "capacity": 2, "zone_id": "zone-044", "zone_dist_m": 81.0}}, {"type": "Feature", "geometry": {"type": "Point", "coordinates": [-96.34249137199212, 30.627134533378918]}, "properties": {"id": "regular-2931", "kind": "regular", "rack_type": "Potato Masher", "typequantity": "1", "capacity": 2, "zone_id": "zone-044", "zone_dist_m": 95.3}}, {"type": "Feature", "geometry": {"type": "Point", "coordinates": [-96.34220629529726, 30.626924226841762]}, "properties": {"id": "regular-2932", "kind": "regular", "rack_type": "Potato Masher", "typequantity": "2", "capacity": 4, "zone_id": "zone-044", "zone_dist_m": 69.6}}, {"type": "Feature", "geometry": {"type": "Point", "coordinates": [-96.34190560889353, 30.62671414095787]}, "properties": {"id": "regular-2933", "kind": "regular", "rack_type": "Potato Masher", "typequantity": "2", "capacity": 4, "zone_id": "zone-044", "zone_dist_m": 57.4}}, {"type": "Feature", "geometry": {"type": "Point", "coordinates": [-96.34220013640852, 30.62644746548197]}, "properties": {"id": "regular-2934", "kind": "regular", "rack_type": "Potato Masher", "typequantity": "2", "capacity": 4, "zone_id": "zone-044", "zone_dist_m": 17.5}}, {"type": "Feature", "geometry": {"type": "Point", "coordinates": [-96.34241697401944, 30.62630342923917]}, "properties": {"id": "regular-2935", "kind": "regular", "rack_type": "Potato Masher", "typequantity": "1", "capacity": 2, "zone_id": "zone-044", "zone_dist_m": 14.7}}, {"type": "Feature", "geometry": {"type": "Point", "coordinates": [-96.34267159421448, 30.62650319817823]}, "properties": {"id": "regular-2936", "kind": "regular", "rack_type": "Potato Masher", "typequantity": "1", "capacity": 2, "zone_id": "zone-044", "zone_dist_m": 45.2}}, {"type": "Feature", "geometry": {"type": "Point", "coordinates": [-96.34287890158735, 30.626678322753044]}, "properties": {"id": "regular-2937", "kind": "regular", "rack_type": "Potato Masher", "typequantity": "1", "capacity": 2, "zone_id": "zone-044", "zone_dist_m": 72.4}}, {"type": "Feature", "geometry": {"type": "Point", "coordinates": [-96.34247804973873, 30.62669163411602]}, "properties": {"id": "regular-2938", "kind": "regular", "rack_type": "Potato Masher", "typequantity": "2", "capacity": 4, "zone_id": "zone-044", "zone_dist_m": 48.2}}, {"type": "Feature", "geometry": {"type": "Point", "coordinates": [-96.34082336940563, 30.627298228050535]}, "properties": {"id": "regular-2939", "kind": "regular", "rack_type": "Potato Masher", "typequantity": "10", "capacity": 260, "zone_id": "zone-008", "zone_dist_m": 87.0}}, {"type": "Feature", "geometry": {"type": "Point", "coordinates": [-96.34130095262549, 30.626857939569966]}, "properties": {"id": "regular-2940", "kind": "regular", "rack_type": "Potato Masher", "typequantity": "4", "capacity": 48, "zone_id": "zone-008", "zone_dist_m": 95.3}}, {"type": "Feature", "geometry": {"type": "Point", "coordinates": [-96.34140279865076, 30.62672028676131]}, "properties": {"id": "regular-2941", "kind": "regular", "rack_type": "Potato Masher", "typequantity": "1", "capacity": 3, "zone_id": "zone-044", "zone_dist_m": 94.6}}, {"type": "Feature", "geometry": {"type": "Point", "coordinates": [-96.34167784314022, 30.626506638614863]}, "properties": {"id": "regular-2942", "kind": "regular", "rack_type": "Potato Masher", "typequantity": "1", "capacity": 2, "zone_id": "zone-044", "zone_dist_m": 60.5}}, {"type": "Feature", "geometry": {"type": "Point", "coordinates": [-96.34195789828358, 30.626269538513046]}, "properties": {"id": "regular-2943", "kind": "regular", "rack_type": "Potato Masher", "typequantity": "1", "capacity": 2, "zone_id": "zone-044", "zone_dist_m": 29.4}}, {"type": "Feature", "geometry": {"type": "Point", "coordinates": [-96.34219627561909, 30.626088586313468]}, "properties": {"id": "regular-2944", "kind": "regular", "rack_type": "Potato Masher", "typequantity": "1", "capacity": 2, "zone_id": "zone-044", "zone_dist_m": 24.4}}, {"type": "Feature", "geometry": {"type": "Point", "coordinates": [-96.34215332153175, 30.62615889344475]}, "properties": {"id": "regular-2945", "kind": "regular", "rack_type": "Potato Masher", "typequantity": "2", "capacity": 24, "zone_id": "zone-044", "zone_dist_m": 18.9}}, {"type": "Feature", "geometry": {"type": "Point", "coordinates": [-96.3400863939549, 30.626540610423017]}, "properties": {"id": "regular-2946", "kind": "regular", "rack_type": "Potato Masher", "typequantity": "1", "capacity": 6, "zone_id": "zone-045", "zone_dist_m": 0.1}}, {"type": "Feature", "geometry": {"type": "Point", "coordinates": [-96.34469651407126, 30.61473226972816]}, "properties": {"id": "regular-2947", "kind": "regular", "rack_type": "Coat Hanger", "typequantity": "1", "capacity": 10, "zone_id": "zone-018", "zone_dist_m": 119.3}}, {"type": "Feature", "geometry": {"type": "Point", "coordinates": [-96.33843140297611, 30.622185230990695]}, "properties": {"id": "regular-2948", "kind": "regular", "rack_type": "Coat Hanger", "typequantity": "2", "capacity": 20, "zone_id": "zone-046", "zone_dist_m": 100.4}}, {"type": "Feature", "geometry": {"type": "Point", "coordinates": [-96.33918554878151, 30.623068411098313]}, "properties": {"id": "regular-2949", "kind": "regular", "rack_type": "Coat Hanger", "typequantity": "3", "capacity": 30, "zone_id": "zone-046", "zone_dist_m": 101.8}}, {"type": "Feature", "geometry": {"type": "Point", "coordinates": [-96.33988492420794, 30.622493813217154]}, "properties": {"id": "regular-2950", "kind": "regular", "rack_type": "Coat Hanger", "typequantity": "10", "capacity": 100, "zone_id": "zone-046", "zone_dist_m": 51.4}}, {"type": "Feature", "geometry": {"type": "Point", "coordinates": [-96.34523077674001, 30.602099466025848]}, "properties": {"id": "regular-2951", "kind": "regular", "rack_type": "Coat Hanger", "typequantity": "1", "capacity": 10, "zone_id": "zone-047", "zone_dist_m": 0.1}}, {"type": "Feature", "geometry": {"type": "Point", "coordinates": [-96.35440179784139, 30.602028476713606]}, "properties": {"id": "regular-2953", "kind": "regular", "rack_type": "Coat Hanger", "typequantity": "4", "capacity": 40, "zone_id": "zone-048", "zone_dist_m": 8.3}}, {"type": "Feature", "geometry": {"type": "Point", "coordinates": [-96.35372870981973, 30.6016000633139]}, "properties": {"id": "regular-2954", "kind": "regular", "rack_type": "Potato Masher", "typequantity": "1", "capacity": 8, "zone_id": "zone-048", "zone_dist_m": 73.7}}, {"type": "Feature", "geometry": {"type": "Point", "coordinates": [-96.3690029405642, 30.615369123163912]}, "properties": {"id": "regular-2955", "kind": "regular", "rack_type": "Potato Masher", "typequantity": "4", "capacity": 12, "zone_id": "zone-049", "zone_dist_m": 0.0}}, {"type": "Feature", "geometry": {"type": "Point", "coordinates": [-96.34537004634902, 30.616646088858328]}, "properties": {"id": "regular-2956", "kind": "regular", "rack_type": "Potato Masher", "typequantity": "4", "capacity": 24, "zone_id": "zone-017", "zone_dist_m": 28.2}}, {"type": "Feature", "geometry": {"type": "Point", "coordinates": [-96.34500688282316, 30.616904754889866]}, "properties": {"id": "regular-2957", "kind": "regular", "rack_type": "Potato Masher", "typequantity": "2", "capacity": 12, "zone_id": "zone-017", "zone_dist_m": 28.7}}, {"type": "Feature", "geometry": {"type": "Point", "coordinates": [-96.34392010941056, 30.614367881635253]}, "properties": {"id": "regular-2958", "kind": "regular", "rack_type": "Coat Hanger", "typequantity": "2", "capacity": 30, "zone_id": "zone-050", "zone_dist_m": 43.4}}, {"type": "Feature", "geometry": {"type": "Point", "coordinates": [-96.34320651710786, 30.614693530399304]}, "properties": {"id": "regular-2959", "kind": "regular", "rack_type": "Coat Hanger", "typequantity": "3", "capacity": 30, "zone_id": "zone-050", "zone_dist_m": 40.7}}, {"type": "Feature", "geometry": {"type": "Point", "coordinates": [-96.34305905092629, 30.614494864079013]}, "properties": {"id": "regular-2960", "kind": "regular", "rack_type": "Coat Hanger", "typequantity": "3", "capacity": 30, "zone_id": "zone-050", "zone_dist_m": 40.5}}, {"type": "Feature", "geometry": {"type": "Point", "coordinates": [-96.34368841077674, 30.61406549003766]}, "properties": {"id": "regular-2961", "kind": "regular", "rack_type": "Coat Hanger", "typequantity": "3", "capacity": 30, "zone_id": "zone-050", "zone_dist_m": 43.2}}, {"type": "Feature", "geometry": {"type": "Point", "coordinates": [-96.36537862458962, 30.61906238272866]}, "properties": {"id": "regular-2962", "kind": "regular", "rack_type": "Large U", "typequantity": "2", "capacity": 4, "zone_id": "zone-051", "zone_dist_m": 0.1}}, {"type": "Feature", "geometry": {"type": "Point", "coordinates": [-96.35979346489408, 30.621765917753102]}, "properties": {"id": "regular-2963", "kind": "regular", "rack_type": "Potato Masher", "typequantity": "1", "capacity": 3, "zone_id": "zone-052", "zone_dist_m": 56.2}}, {"type": "Feature", "geometry": {"type": "Point", "coordinates": [-96.35888944157954, 30.621122460288518]}, "properties": {"id": "regular-2964", "kind": "regular", "rack_type": "Coat Hanger", "typequantity": "1", "capacity": 10, "zone_id": "zone-052", "zone_dist_m": 56.1}}, {"type": "Feature", "geometry": {"type": "Point", "coordinates": [-96.35286056021232, 30.61452548246576]}, "properties": {"id": "regular-2965", "kind": "regular", "rack_type": "Coat Hanger", "typequantity": "1", "capacity": 10, "zone_id": "zone-053", "zone_dist_m": 0.1}}, {"type": "Feature", "geometry": {"type": "Point", "coordinates": [-96.35636493138456, 30.61182434611655]}, "properties": {"id": "regular-2966", "kind": "regular", "rack_type": "Coat Hanger", "typequantity": "12", "capacity": 120, "zone_id": "zone-054", "zone_dist_m": 50.1}}, {"type": "Feature", "geometry": {"type": "Point", "coordinates": [-96.35680596186432, 30.612091552963747]}, "properties": {"id": "regular-2967", "kind": "regular", "rack_type": "Coat Hanger", "typequantity": "8", "capacity": 80, "zone_id": "zone-054", "zone_dist_m": 42.0}}, {"type": "Feature", "geometry": {"type": "Point", "coordinates": [-96.35745023111119, 30.611239030310088]}, "properties": {"id": "regular-2968", "kind": "regular", "rack_type": "Coat Hanger", "typequantity": "3", "capacity": 30, "zone_id": "zone-054", "zone_dist_m": 76.7}}, {"type": "Feature", "geometry": {"type": "Point", "coordinates": [-96.36095260440544, 30.608824687417403]}, "properties": {"id": "regular-2969", "kind": "regular", "rack_type": "Coat Hanger", "typequantity": "2", "capacity": 20, "zone_id": "zone-055", "zone_dist_m": 0.1}}, {"type": "Feature", "geometry": {"type": "Point", "coordinates": [-96.35542443555546, 30.602365064775665]}, "properties": {"id": "regular-2970", "kind": "regular", "rack_type": "Coat Hanger", "typequantity": "1", "capacity": 10, "zone_id": "zone-048", "zone_dist_m": 110.0}}, {"type": "Feature", "geometry": {"type": "Point", "coordinates": [-96.35635666113215, 30.607206525805115]}, "properties": {"id": "regular-2971", "kind": "regular", "rack_type": "Coat Hanger", "typequantity": "27", "capacity": 270, "zone_id": "zone-056", "zone_dist_m": 83.4}}, {"type": "Feature", "geometry": {"type": "Point", "coordinates": [-96.35534786454681, 30.607418904404977]}, "properties": {"id": "regular-2972", "kind": "regular", "rack_type": "Coat Hanger", "typequantity": "15", "capacity": 150, "zone_id": "zone-056", "zone_dist_m": 16.1}}, {"type": "Feature", "geometry": {"type": "Point", "coordinates": [-96.35534218555901, 30.60783999364352]}, "properties": {"id": "regular-2973", "kind": "regular", "rack_type": "Coat Hanger", "typequantity": "18", "capacity": 180, "zone_id": "zone-056", "zone_dist_m": 51.4}}, {"type": "Feature", "geometry": {"type": "Point", "coordinates": [-96.35635134805938, 30.608044491451388]}, "properties": {"id": "regular-2974", "kind": "regular", "rack_type": "Coat Hanger", "typequantity": "31", "capacity": 310, "zone_id": "zone-056", "zone_dist_m": 107.3}}, {"type": "Feature", "geometry": {"type": "Point", "coordinates": [-96.34712887712145, 30.605058956372087]}, "properties": {"id": "regular-2975", "kind": "regular", "rack_type": "Coat Hanger", "typequantity": "22", "capacity": 220, "zone_id": "zone-057", "zone_dist_m": 15.7}}, {"type": "Feature", "geometry": {"type": "Point", "coordinates": [-96.34733476338036, 30.605279457560773]}, "properties": {"id": "regular-2976", "kind": "regular", "rack_type": "Coat Hanger", "typequantity": "20", "capacity": 200, "zone_id": "zone-057", "zone_dist_m": 15.7}}, {"type": "Feature", "geometry": {"type": "Point", "coordinates": [-96.34170087846249, 30.605100722283293]}, "properties": {"id": "regular-2977", "kind": "regular", "rack_type": "Coat Hanger", "typequantity": "1", "capacity": 10, "zone_id": "zone-039", "zone_dist_m": 61.4}}, {"type": "Feature", "geometry": {"type": "Point", "coordinates": [-96.34290358243511, 30.60616160460512]}, "properties": {"id": "regular-2978", "kind": "regular", "rack_type": "Coat Hanger", "typequantity": "3", "capacity": 30, "zone_id": "zone-058", "zone_dist_m": 0.1}}, {"type": "Feature", "geometry": {"type": "Point", "coordinates": [-96.342973785431, 30.608491791591184]}, "properties": {"id": "regular-2979", "kind": "regular", "rack_type": "Coat Hanger", "typequantity": "22", "capacity": 220, "zone_id": "zone-005", "zone_dist_m": 98.0}}, {"type": "Feature", "geometry": {"type": "Point", "coordinates": [-96.3403697289061, 30.6219255169769]}, "properties": {"id": "regular-2982", "kind": "regular", "rack_type": "Coat Hanger", "typequantity": "8", "capacity": 80, "zone_id": "zone-046", "zone_dist_m": 89.9}}, {"type": "Feature", "geometry": {"type": "Point", "coordinates": [-96.33953273016157, 30.621269602340973]}, "properties": {"id": "regular-2983", "kind": "regular", "rack_type": "Coat Hanger", "typequantity": "14", "capacity": 140, "zone_id": "zone-046", "zone_dist_m": 102.4}}, {"type": "Feature", "geometry": {"type": "Point", "coordinates": [-96.34045904834943, 30.62055962226696]}, "properties": {"id": "regular-2984", "kind": "regular", "rack_type": "Coat Hanger", "typequantity": "15", "capacity": 150, "zone_id": "zone-006", "zone_dist_m": 103.7}}, {"type": "Feature", "geometry": {"type": "Point", "coordinates": [-96.3404069411665, 30.6141889014193]}, "properties": {"id": "regular-2985", "kind": "regular", "rack_type": "Coat Hanger", "typequantity": "5", "capacity": 50, "zone_id": "zone-002", "zone_dist_m": 8.8}}, {"type": "Feature", "geometry": {"type": "Point", "coordinates": [-96.34174928365988, 30.620530505926432]}, "properties": {"id": "regular-2987", "kind": "regular", "rack_type": "Coat Hanger", "typequantity": "2", "capacity": 20, "zone_id": "zone-006", "zone_dist_m": 24.0}}, {"type": "Feature", "geometry": {"type": "Point", "coordinates": [-96.33847137716901, 30.620745513941934]}, "properties": {"id": "regular-2988", "kind": "regular", "rack_type": "Coat Hanger", "typequantity": "8", "capacity": 80, "zone_id": "zone-078", "zone_dist_m": 47.6}}, {"type": "Feature", "geometry": {"type": "Point", "coordinates": [-96.33727989142118, 30.623328541187558]}, "properties": {"id": "regular-2990", "kind": "regular", "rack_type": "Coat Hanger", "typequantity": "12", "capacity": 120, "zone_id": "zone-059", "zone_dist_m": 46.1}}, {"type": "Feature", "geometry": {"type": "Point", "coordinates": [-96.33758941177173, 30.622543860466827]}, "properties": {"id": "regular-2991", "kind": "regular", "rack_type": "Coat Hanger", "typequantity": "16", "capacity": 160, "zone_id": "zone-059", "zone_dist_m": 46.0}}, {"type": "Feature", "geometry": {"type": "Point", "coordinates": [-96.3383201320236, 30.618789215142666]}, "properties": {"id": "regular-2994", "kind": "regular", "rack_type": "U", "typequantity": "6", "capacity": 12, "zone_id": "zone-031", "zone_dist_m": 43.2}}, {"type": "Feature", "geometry": {"type": "Point", "coordinates": [-96.33943302912827, 30.62021230210808]}, "properties": {"id": "regular-2995", "kind": "regular", "rack_type": "Coat Hanger", "typequantity": "4", "capacity": 40, "zone_id": "zone-003", "zone_dist_m": 4.9}}, {"type": "Feature", "geometry": {"type": "Point", "coordinates": [-96.33909042308369, 30.6202690080058]}, "properties": {"id": "regular-2996", "kind": "regular", "rack_type": "Coat Hanger", "typequantity": "10", "capacity": 100, "zone_id": "zone-003", "zone_dist_m": 35.7}}, {"type": "Feature", "geometry": {"type": "Point", "coordinates": [-96.34168821495314, 30.61909568613318]}, "properties": {"id": "regular-2998", "kind": "regular", "rack_type": "Coat Hanger", "typequantity": "1", "capacity": 10, "zone_id": "zone-004", "zone_dist_m": 57.7}}, {"type": "Feature", "geometry": {"type": "Point", "coordinates": [-96.3414503028952, 30.619296171892955]}, "properties": {"id": "regular-2999", "kind": "regular", "rack_type": "Coat Hanger", "typequantity": "6", "capacity": 60, "zone_id": "zone-004", "zone_dist_m": 48.3}}, {"type": "Feature", "geometry": {"type": "Point", "coordinates": [-96.3414238671484, 30.619459563517008]}, "properties": {"id": "regular-3000", "kind": "regular", "rack_type": "Coat Hanger", "typequantity": "9", "capacity": 90, "zone_id": "zone-004", "zone_dist_m": 61.3}}, {"type": "Feature", "geometry": {"type": "Point", "coordinates": [-96.34120339987348, 30.61947926681032]}, "properties": {"id": "regular-3001", "kind": "regular", "rack_type": "Coat Hanger", "typequantity": "4", "capacity": 40, "zone_id": "zone-004", "zone_dist_m": 56.0}}, {"type": "Feature", "geometry": {"type": "Point", "coordinates": [-96.33682819807322, 30.617389897562045]}, "properties": {"id": "regular-3002", "kind": "regular", "rack_type": "Coat Hanger", "typequantity": "9", "capacity": 90, "zone_id": "zone-029", "zone_dist_m": 41.7}}, {"type": "Feature", "geometry": {"type": "Point", "coordinates": [-96.33637863731073, 30.61627026275146]}, "properties": {"id": "regular-3003", "kind": "regular", "rack_type": "Coat Hanger", "typequantity": "5", "capacity": 50, "zone_id": "zone-001", "zone_dist_m": 33.2}}, {"type": "Feature", "geometry": {"type": "Point", "coordinates": [-96.33626620069151, 30.616139241282195]}, "properties": {"id": "regular-3005", "kind": "regular", "rack_type": "Coat Hanger", "typequantity": "3", "capacity": 30, "zone_id": "zone-001", "zone_dist_m": 15.0}}, {"type": "Feature", "geometry": {"type": "Point", "coordinates": [-96.33603076104116, 30.615904516902972]}, "properties": {"id": "regular-3006", "kind": "regular", "rack_type": "Coat Hanger", "typequantity": "3", "capacity": 30, "zone_id": "zone-001", "zone_dist_m": 19.5}}, {"type": "Feature", "geometry": {"type": "Point", "coordinates": [-96.336647403716, 30.614433596654102]}, "properties": {"id": "regular-3007", "kind": "regular", "rack_type": "Coat Hanger", "typequantity": "18", "capacity": 180, "zone_id": "zone-027", "zone_dist_m": 119.6}}, {"type": "Feature", "geometry": {"type": "Point", "coordinates": [-96.33866273721291, 30.609055918953672]}, "properties": {"id": "regular-3009", "kind": "regular", "rack_type": "DP", "typequantity": "4", "capacity": 20, "zone_id": "zone-042", "zone_dist_m": 42.4}}, {"type": "Feature", "geometry": {"type": "Point", "coordinates": [-96.3441636335259, 30.617980903787625]}, "properties": {"id": "regular-3010", "kind": "regular", "rack_type": "Coat Hanger", "typequantity": "8", "capacity": 80, "zone_id": "zone-060", "zone_dist_m": 41.1}}, {"type": "Feature", "geometry": {"type": "Point", "coordinates": [-96.34457209682712, 30.618285740870146]}, "properties": {"id": "regular-3011", "kind": "regular", "rack_type": "Coat Hanger", "typequantity": "1", "capacity": 10, "zone_id": "zone-060", "zone_dist_m": 24.5}}, {"type": "Feature", "geometry": {"type": "Point", "coordinates": [-96.34518070522607, 30.61678124144762]}, "properties": {"id": "regular-3012", "kind": "regular", "rack_type": "Potato Masher", "typequantity": "2", "capacity": 10, "zone_id": "zone-017", "zone_dist_m": 17.4}}, {"type": "Feature", "geometry": {"type": "Point", "coordinates": [-96.34508994074605, 30.61684109812249]}, "properties": {"id": "regular-3013", "kind": "regular", "rack_type": "Potato Masher", "typequantity": "2", "capacity": 10, "zone_id": "zone-017", "zone_dist_m": 21.6}}, {"type": "Feature", "geometry": {"type": "Point", "coordinates": [-96.34564559744358, 30.616255975675774]}, "properties": {"id": "regular-3014", "kind": "regular", "rack_type": "Coat Hanger", "typequantity": "2", "capacity": 20, "zone_id": "zone-017", "zone_dist_m": 78.0}}, {"type": "Feature", "geometry": {"type": "Point", "coordinates": [-96.34593722292117, 30.61566796465695]}, "properties": {"id": "regular-3015", "kind": "regular", "rack_type": "Coat Hanger", "typequantity": "2", "capacity": 20, "zone_id": "zone-018", "zone_dist_m": 39.6}}, {"type": "Feature", "geometry": {"type": "Point", "coordinates": [-96.34572359802578, 30.6158125298951]}, "properties": {"id": "regular-3016", "kind": "regular", "rack_type": "Coat Hanger", "typequantity": "1", "capacity": 10, "zone_id": "zone-018", "zone_dist_m": 38.5}}, {"type": "Feature", "geometry": {"type": "Point", "coordinates": [-96.34421895207338, 30.616258071557205]}, "properties": {"id": "regular-3017", "kind": "regular", "rack_type": "Coat Hanger", "typequantity": "6", "capacity": 60, "zone_id": "zone-019", "zone_dist_m": 37.1}}, {"type": "Feature", "geometry": {"type": "Point", "coordinates": [-96.3438878403311, 30.61586967093668]}, "properties": {"id": "regular-3018", "kind": "regular", "rack_type": "Coat Hanger", "typequantity": "6", "capacity": 60, "zone_id": "zone-019", "zone_dist_m": 58.6}}, {"type": "Feature", "geometry": {"type": "Point", "coordinates": [-96.34227596380808, 30.611272387536506]}, "properties": {"id": "regular-3019", "kind": "regular", "rack_type": "Fence", "typequantity": "1", "capacity": 14, "zone_id": "zone-061", "zone_dist_m": 0.0}}, {"type": "Feature", "geometry": {"type": "Point", "coordinates": [-96.34336075585885, 30.61227604329972]}, "properties": {"id": "regular-3025", "kind": "regular", "rack_type": "Coat Hanger", "typequantity": "42", "capacity": 420, "zone_id": "zone-062", "zone_dist_m": 58.0}}, {"type": "Feature", "geometry": {"type": "Point", "coordinates": [-96.34437925239405, 30.612414622057784]}, "properties": {"id": "regular-3026", "kind": "regular", "rack_type": "Coat Hanger", "typequantity": "18", "capacity": 180, "zone_id": "zone-062", "zone_dist_m": 42.9}}, {"type": "Feature", "geometry": {"type": "Point", "coordinates": [-96.34295253194526, 30.61559907160029]}, "properties": {"id": "regular-3027", "kind": "regular", "rack_type": "Coat Hanger", "typequantity": "1", "capacity": 10, "zone_id": "zone-043", "zone_dist_m": 20.0}}, {"type": "Feature", "geometry": {"type": "Point", "coordinates": [-96.34092099102351, 30.61377666038665]}, "properties": {"id": "regular-3028", "kind": "regular", "rack_type": "Coat Hanger", "typequantity": "16", "capacity": 160, "zone_id": "zone-002", "zone_dist_m": 67.8}}, {"type": "Feature", "geometry": {"type": "Point", "coordinates": [-96.33966075419268, 30.613712982730004]}, "properties": {"id": "regular-3030", "kind": "regular", "rack_type": "Coat Hanger", "typequantity": "8", "capacity": 80, "zone_id": "zone-002", "zone_dist_m": 80.3}}, {"type": "Feature", "geometry": {"type": "Point", "coordinates": [-96.3404155161423, 30.6158938551133]}, "properties": {"id": "regular-3031", "kind": "regular", "rack_type": "Coat Hanger", "typequantity": "7", "capacity": 70, "zone_id": "zone-020", "zone_dist_m": 106.4}}, {"type": "Feature", "geometry": {"type": "Point", "coordinates": [-96.33845964136876, 30.61699041156514]}, "properties": {"id": "regular-3032", "kind": "regular", "rack_type": "Coat Hanger", "typequantity": "1", "capacity": 10, "zone_id": "zone-021", "zone_dist_m": 43.4}}, {"type": "Feature", "geometry": {"type": "Point", "coordinates": [-96.33959214031194, 30.617475988772753]}, "properties": {"id": "regular-3033", "kind": "regular", "rack_type": "Coat Hanger", "typequantity": "3", "capacity": 30, "zone_id": "zone-021", "zone_dist_m": 78.9}}, {"type": "Feature", "geometry": {"type": "Point", "coordinates": [-96.34583323899137, 30.603647663120363]}, "properties": {"id": "regular-3036", "kind": "regular", "rack_type": "Coat Hanger", "typequantity": "2", "capacity": 20, "zone_id": "zone-063", "zone_dist_m": 0.0}}, {"type": "Feature", "geometry": {"type": "Point", "coordinates": [-96.34916989253033, 30.6047455871581]}, "properties": {"id": "regular-3037", "kind": "regular", "rack_type": "Coat Hanger", "typequantity": "14", "capacity": 140, "zone_id": "zone-064", "zone_dist_m": 0.0}}, {"type": "Feature", "geometry": {"type": "Point", "coordinates": [-96.35068560199393, 30.605931334772976]}, "properties": {"id": "regular-3038", "kind": "regular", "rack_type": "U", "typequantity": "82", "capacity": 164, "zone_id": "zone-065", "zone_dist_m": 72.9}}, {"type": "Feature", "geometry": {"type": "Point", "coordinates": [-96.35059136110773, 30.605561915906524]}, "properties": {"id": "regular-3039", "kind": "regular", "rack_type": "U", "typequantity": "60", "capacity": 120, "zone_id": "zone-065", "zone_dist_m": 40.9}}, {"type": "Feature", "geometry": {"type": "Point", "coordinates": [-96.35096473216976, 30.605291141967534]}, "properties": {"id": "regular-3040", "kind": "regular", "rack_type": "U", "typequantity": "12", "capacity": 24, "zone_id": "zone-065", "zone_dist_m": 7.1}}, {"type": "Feature", "geometry": {"type": "Point", "coordinates": [-96.35132049286065, 30.604415391266627]}, "properties": {"id": "regular-3041", "kind": "regular", "rack_type": "Coat Hanger", "typequantity": "1", "capacity": 10, "zone_id": "zone-065", "zone_dist_m": 106.6}}, {"type": "Feature", "geometry": {"type": "Point", "coordinates": [-96.34942013089392, 30.609176306227212]}, "properties": {"id": "regular-3042", "kind": "regular", "rack_type": "Coat Hanger", "typequantity": "6", "capacity": 60, "zone_id": "zone-089", "zone_dist_m": 100.1}}, {"type": "Feature", "geometry": {"type": "Point", "coordinates": [-96.3515345101434, 30.61126357174479]}, "properties": {"id": "regular-3043", "kind": "regular", "rack_type": "Coat Hanger", "typequantity": "10", "capacity": 100, "zone_id": "zone-066", "zone_dist_m": 29.0}}, {"type": "Feature", "geometry": {"type": "Point", "coordinates": [-96.35439103452016, 30.602083325249154]}, "properties": {"id": "regular-3044", "kind": "regular", "rack_type": "Hanging", "typequantity": "1", "capacity": 12, "zone_id": "zone-048", "zone_dist_m": 14.1}}, {"type": "Feature", "geometry": {"type": "Point", "coordinates": [-96.3572548563265, 30.601717952578294]}, "properties": {"id": "regular-3046", "kind": "regular", "rack_type": "Coat Hanger", "typequantity": "1", "capacity": 10, "zone_id": "zone-067", "zone_dist_m": 0.0}}, {"type": "Feature", "geometry": {"type": "Point", "coordinates": [-96.35855818464378, 30.60477745794284]}, "properties": {"id": "regular-3047", "kind": "regular", "rack_type": "Coat Hanger", "typequantity": "1", "capacity": 10, "zone_id": "zone-036", "zone_dist_m": 89.6}}, {"type": "Feature", "geometry": {"type": "Point", "coordinates": [-96.35643808595384, 30.618205137667278]}, "properties": {"id": "regular-3048", "kind": "regular", "rack_type": "Coat Hanger", "typequantity": "2", "capacity": 20, "zone_id": "zone-068", "zone_dist_m": 0.0}}, {"type": "Feature", "geometry": {"type": "Point", "coordinates": [-96.35248452547525, 30.615922586367542]}, "properties": {"id": "regular-3049", "kind": "regular", "rack_type": "Coat Hanger", "typequantity": "1", "capacity": 10, "zone_id": "zone-009", "zone_dist_m": 4.7}}, {"type": "Feature", "geometry": {"type": "Point", "coordinates": [-96.34849100084375, 30.612975464665006]}, "properties": {"id": "regular-3050", "kind": "regular", "rack_type": "Coat Hanger", "typequantity": "2", "capacity": 20, "zone_id": "zone-069", "zone_dist_m": 71.6}}, {"type": "Feature", "geometry": {"type": "Point", "coordinates": [-96.34923190105229, 30.61334657802674]}, "properties": {"id": "regular-3052", "kind": "regular", "rack_type": "Coat Hanger", "typequantity": "1", "capacity": 10, "zone_id": "zone-069", "zone_dist_m": 50.3}}, {"type": "Feature", "geometry": {"type": "Point", "coordinates": [-96.34860269015614, 30.61439151553921]}, "properties": {"id": "regular-3053", "kind": "regular", "rack_type": "Coat Hanger", "typequantity": "1", "capacity": 10, "zone_id": "zone-069", "zone_dist_m": 92.7}}, {"type": "Feature", "geometry": {"type": "Point", "coordinates": [-96.35509280017973, 30.606846881941664]}, "properties": {"id": "regular-3054", "kind": "regular", "rack_type": "Coat Hanger", "typequantity": "2", "capacity": 20, "zone_id": "zone-056", "zone_dist_m": 73.8}}, {"type": "Feature", "geometry": {"type": "Point", "coordinates": [-96.35465056478803, 30.60934508817202]}, "properties": {"id": "regular-3055", "kind": "regular", "rack_type": "Potato Masher", "typequantity": "2", "capacity": 8, "zone_id": "zone-037", "zone_dist_m": 56.2}}, {"type": "Feature", "geometry": {"type": "Point", "coordinates": [-96.35391709743223, 30.607910010981307]}, "properties": {"id": "regular-3056", "kind": "regular", "rack_type": "Coat Hanger", "typequantity": "17", "capacity": 170, "zone_id": "zone-070", "zone_dist_m": 33.1}}, {"type": "Feature", "geometry": {"type": "Point", "coordinates": [-96.35337289271608, 30.60754212506449]}, "properties": {"id": "regular-3057", "kind": "regular", "rack_type": "Coat Hanger", "typequantity": "12", "capacity": 120, "zone_id": "zone-070", "zone_dist_m": 33.1}}, {"type": "Feature", "geometry": {"type": "Point", "coordinates": [-96.36095715528063, 30.618188667379187]}, "properties": {"id": "regular-3060", "kind": "regular", "rack_type": "Fence", "typequantity": "1", "capacity": 17, "zone_id": "zone-071", "zone_dist_m": 0.0}}, {"type": "Feature", "geometry": {"type": "Point", "coordinates": [-96.47512462334328, 30.647280711093497]}, "properties": {"id": "regular-3065", "kind": "regular", "rack_type": "Coat Hanger", "typequantity": "1", "capacity": 10, "zone_id": "zone-072", "zone_dist_m": 0.0}}, {"type": "Feature", "geometry": {"type": "Point", "coordinates": [-96.46856257063047, 30.64207547292231]}, "properties": {"id": "regular-3066", "kind": "regular", "rack_type": "Coat Hanger", "typequantity": "4", "capacity": 40, "zone_id": "zone-073", "zone_dist_m": 0.1}}, {"type": "Feature", "geometry": {"type": "Point", "coordinates": [-96.34331856909765, 30.59706486174357]}, "properties": {"id": "regular-3067", "kind": "regular", "rack_type": "Coat Hanger", "typequantity": "2", "capacity": 20, "zone_id": "zone-074", "zone_dist_m": 0.0}}, {"type": "Feature", "geometry": {"type": "Point", "coordinates": [-96.34357188450971, 30.600079024891127]}, "properties": {"id": "regular-3068", "kind": "regular", "rack_type": "Coat Hanger", "typequantity": "1", "capacity": 10, "zone_id": "zone-075", "zone_dist_m": 0.0}}, {"type": "Feature", "geometry": {"type": "Point", "coordinates": [-96.34655494882955, 30.61402080113969]}, "properties": {"id": "regular-3109", "kind": "regular", "rack_type": "Coat Hanger", "typequantity": "1", "capacity": 10, "zone_id": "zone-076", "zone_dist_m": 0.0}}, {"type": "Feature", "geometry": {"type": "Point", "coordinates": [-96.33605148957938, 30.618539382126887]}, "properties": {"id": "regular-3112", "kind": "regular", "rack_type": "Coat Hanger", "typequantity": "1", "capacity": 10, "zone_id": "zone-077", "zone_dist_m": 0.1}}, {"type": "Feature", "geometry": {"type": "Point", "coordinates": [-96.34008419006395, 30.617088637370756]}, "properties": {"id": "regular-3113", "kind": "regular", "rack_type": "Coat Hanger", "typequantity": "12", "capacity": 120, "zone_id": "zone-021", "zone_dist_m": 113.6}}, {"type": "Feature", "geometry": {"type": "Point", "coordinates": [-96.33651148755527, 30.615377030875425]}, "properties": {"id": "regular-3114", "kind": "regular", "rack_type": "Coat Hanger", "typequantity": "8", "capacity": 80, "zone_id": "zone-001", "zone_dist_m": 79.3}}, {"type": "Feature", "geometry": {"type": "Point", "coordinates": [-96.3340184149642, 30.616112146024303]}, "properties": {"id": "regular-3118", "kind": "regular", "rack_type": "Coat Hanger", "typequantity": "12", "capacity": 120, "zone_id": "zone-028", "zone_dist_m": 73.5}}, {"type": "Feature", "geometry": {"type": "Point", "coordinates": [-96.3504071807957, 30.610598868769888]}, "properties": {"id": "regular-3518", "kind": "regular", "rack_type": "Coat Hanger", "typequantity": "1", "capacity": 10, "zone_id": "zone-016", "zone_dist_m": 65.8}}, {"type": "Feature", "geometry": {"type": "Point", "coordinates": [-96.35039645145596, 30.610600023066823]}, "properties": {"id": "regular-3519", "kind": "regular", "rack_type": "Coat Hanger", "typequantity": "8", "capacity": 80, "zone_id": "zone-016", "zone_dist_m": 65.3}}, {"type": "Feature", "geometry": {"type": "Point", "coordinates": [-96.35054408167343, 30.610218381478873]}, "properties": {"id": "regular-3520", "kind": "regular", "rack_type": "Temporary Racks", "typequantity": "4", "capacity": 40, "zone_id": "zone-016", "zone_dist_m": 51.6}}, {"type": "Feature", "geometry": {"type": "Point", "coordinates": [-96.3381595431079, 30.62107860761705]}, "properties": {"id": "regular-3521", "kind": "regular", "rack_type": "Coat Hanger", "typequantity": "6", "capacity": 60, "zone_id": "zone-078", "zone_dist_m": 0.1}}, {"type": "Feature", "geometry": {"type": "Point", "coordinates": [-96.33591120457879, 30.620544402035335]}, "properties": {"id": "regular-3918", "kind": "regular", "rack_type": "Coat Hanger", "typequantity": "2", "capacity": 20, "zone_id": "zone-079", "zone_dist_m": 0.0}}, {"type": "Feature", "geometry": {"type": "Point", "coordinates": [-96.33324569302363, 30.612462336928925]}, "properties": {"id": "regular-4318", "kind": "regular", "rack_type": "Hitching Post", "typequantity": "1", "capacity": 10, "zone_id": "zone-080", "zone_dist_m": 0.0}}, {"type": "Feature", "geometry": {"type": "Point", "coordinates": [-96.35189736502305, 30.5981088128425]}, "properties": {"id": "regular-4319", "kind": "regular", "rack_type": "Coat Hanger", "typequantity": "5", "capacity": 50, "zone_id": "zone-081", "zone_dist_m": 0.0}}, {"type": "Feature", "geometry": {"type": "Point", "coordinates": [-96.3476713467195, 30.61217767765204]}, "properties": {"id": "regular-4719", "kind": "regular", "rack_type": "Coat Hanger", "typequantity": "5", "capacity": 50, "zone_id": "zone-038", "zone_dist_m": 102.2}}, {"type": "Feature", "geometry": {"type": "Point", "coordinates": [-96.35459943519442, 30.60705465775451]}, "properties": {"id": "regular-4720", "kind": "regular", "rack_type": "Coat Hanger", "typequantity": "2", "capacity": 20, "zone_id": "zone-056", "zone_dist_m": 95.8}}, {"type": "Feature", "geometry": {"type": "Point", "coordinates": [-96.34507708178796, 30.612223300255177]}, "properties": {"id": "regular-4721", "kind": "regular", "rack_type": "Coat Hanger", "typequantity": "4", "capacity": 40, "zone_id": "zone-062", "zone_dist_m": 106.3}}, {"type": "Feature", "geometry": {"type": "Point", "coordinates": [-96.35087748743491, 30.60761010513945]}, "properties": {"id": "regular-4722", "kind": "regular", "rack_type": "Inverted U", "typequantity": "5", "capacity": 10, "zone_id": "zone-082", "zone_dist_m": 0.0}}, {"type": "Feature", "geometry": {"type": "Point", "coordinates": [-96.34824556966122, 30.60950306397478]}, "properties": {"id": "regular-4723", "kind": "regular", "rack_type": "Coat Hanger", "typequantity": "2", "capacity": 20, "zone_id": "zone-083", "zone_dist_m": 0.0}}, {"type": "Feature", "geometry": {"type": "Point", "coordinates": [-96.34588363490315, 30.611494537830616]}, "properties": {"id": "regular-5118", "kind": "regular", "rack_type": "Coat Hanger", "typequantity": "18", "capacity": 180, "zone_id": "zone-084", "zone_dist_m": 40.5}}, {"type": "Feature", "geometry": {"type": "Point", "coordinates": [-96.34567978745042, 30.61078815995193]}, "properties": {"id": "regular-5119", "kind": "regular", "rack_type": "Coat Hanger", "typequantity": "12", "capacity": 120, "zone_id": "zone-084", "zone_dist_m": 40.4}}, {"type": "Feature", "geometry": {"type": "Point", "coordinates": [-96.33823531597697, 30.606608651959515]}, "properties": {"id": "regular-5518", "kind": "regular", "rack_type": "Coat Hanger", "typequantity": "3", "capacity": 30, "zone_id": "zone-085", "zone_dist_m": 0.0}}, {"type": "Feature", "geometry": {"type": "Point", "coordinates": [-96.34106833873699, 30.62126268459317]}, "properties": {"id": "regular-5918", "kind": "regular", "rack_type": "Coat Hanger", "typequantity": "6", "capacity": 60, "zone_id": "zone-006", "zone_dist_m": 81.9}}, {"type": "Feature", "geometry": {"type": "Point", "coordinates": [-96.33683922687607, 30.608278861231554]}, "properties": {"id": "regular-6318", "kind": "regular", "rack_type": "Coat Hanger", "typequantity": "1", "capacity": 6, "zone_id": "zone-086", "zone_dist_m": 0.0}}, {"type": "Feature", "geometry": {"type": "Point", "coordinates": [-96.33802392907512, 30.611884430461174]}, "properties": {"id": "regular-6718", "kind": "regular", "rack_type": "Coat Hanger", "typequantity": "1", "capacity": 10, "zone_id": "zone-023", "zone_dist_m": 84.5}}, {"type": "Feature", "geometry": {"type": "Point", "coordinates": [-96.33946686555281, 30.611682636632224]}, "properties": {"id": "regular-6719", "kind": "regular", "rack_type": "Coat Hanger", "typequantity": "6", "capacity": 60, "zone_id": "zone-023", "zone_dist_m": 61.0}}, {"type": "Feature", "geometry": {"type": "Point", "coordinates": [-96.35397350769136, 30.61795430798991]}, "properties": {"id": "regular-6733", "kind": "regular", "rack_type": "Coat Hanger", "typequantity": "2", "capacity": 20, "zone_id": "zone-035", "zone_dist_m": 50.6}}, {"type": "Feature", "geometry": {"type": "Point", "coordinates": [-96.34279163927395, 30.604296544065264]}, "properties": {"id": "regular-6734", "kind": "regular", "rack_type": "Coat Hanger", "typequantity": "4", "capacity": 40, "zone_id": "zone-039", "zone_dist_m": 77.7}}, {"type": "Feature", "geometry": {"type": "Point", "coordinates": [-96.35394096524595, 30.601707553062436]}, "properties": {"id": "regular-6735", "kind": "regular", "rack_type": "Coat Hanger", "typequantity": "3", "capacity": 30, "zone_id": "zone-048", "zone_dist_m": 50.1}}, {"type": "Feature", "geometry": {"type": "Point", "coordinates": [-96.33890716770298, 30.619882240541575]}, "properties": {"id": "regular-6736", "kind": "regular", "rack_type": "Coat Hanger", "typequantity": "4", "capacity": 40, "zone_id": "zone-003", "zone_dist_m": 60.5}}, {"type": "Feature", "geometry": {"type": "Point", "coordinates": [-96.35131740859273, 30.61077603829906]}, "properties": {"id": "regular-6737", "kind": "regular", "rack_type": "Coat Hangar", "typequantity": "2", "capacity": 40, "zone_id": "zone-066", "zone_dist_m": 29.0}}, {"type": "Feature", "geometry": {"type": "Point", "coordinates": [-96.34059679735314, 30.616069205008937]}, "properties": {"id": "regular-6739", "kind": "regular", "rack_type": "Coat Hanger", "typequantity": "5", "capacity": 50, "zone_id": "zone-020", "zone_dist_m": 80.4}}, {"type": "Feature", "geometry": {"type": "Point", "coordinates": [-96.33894381630459, 30.60811968648648]}, "properties": {"id": "regular-6740", "kind": "regular", "rack_type": "Coat Hanger", "typequantity": "5", "capacity": 50, "zone_id": "zone-042", "zone_dist_m": 65.4}}, {"type": "Feature", "geometry": {"type": "Point", "coordinates": [-96.33421715742057, 30.61053341154636]}, "properties": {"id": "regular-6741", "kind": "regular", "rack_type": "Coat Hanger", "typequantity": "2", "capacity": 20, "zone_id": "zone-087", "zone_dist_m": 43.2}}, {"type": "Feature", "geometry": {"type": "Point", "coordinates": [-96.33423918181646, 30.6105536768253]}, "properties": {"id": "regular-6744", "kind": "regular", "rack_type": "Bike Share Hitching Post", "typequantity": "1", "capacity": 10, "zone_id": "zone-087", "zone_dist_m": 43.6}}, {"type": "Feature", "geometry": {"type": "Point", "coordinates": [-96.33479530517033, 30.609928745829002]}, "properties": {"id": "regular-6745", "kind": "regular", "rack_type": "Coat Hanger", "typequantity": "1", "capacity": 10, "zone_id": "zone-087", "zone_dist_m": 43.9}}, {"type": "Feature", "geometry": {"type": "Point", "coordinates": [-96.33482548011312, 30.60996048670095]}, "properties": {"id": "regular-6746", "kind": "regular", "rack_type": "Bike Share Hitching Post", "typequantity": "2", "capacity": 20, "zone_id": "zone-087", "zone_dist_m": 43.1}}, {"type": "Feature", "geometry": {"type": "Point", "coordinates": [-96.35658128517883, 30.62066083160404]}, "properties": {"id": "regular-6747", "kind": "regular", "rack_type": "Coat Hanger", "typequantity": "1", "capacity": 10, "zone_id": "zone-088", "zone_dist_m": 0.0}}, {"type": "Feature", "geometry": {"type": "Point", "coordinates": [-96.34908169465724, 30.608324347508848]}, "properties": {"id": "regular-6748", "kind": "regular", "rack_type": "Coat Hanger", "typequantity": "2", "capacity": 20, "zone_id": "zone-089", "zone_dist_m": 0.0}}, {"type": "Feature", "geometry": {"type": "Point", "coordinates": [-96.34304588568449, 30.619839101199457]}, "properties": {"id": "regular-6749", "kind": "regular", "rack_type": "Coat Hanger", "typequantity": "2", "capacity": 20, "zone_id": "zone-007", "zone_dist_m": 34.3}}, {"type": "Feature", "geometry": {"type": "Point", "coordinates": [-96.34897213812908, 30.611200569755198]}, "properties": {"id": "regular-6750", "kind": "regular", "rack_type": "Coat Hanger", "typequantity": "17", "capacity": 170, "zone_id": "zone-038", "zone_dist_m": 68.4}}, {"type": "Feature", "geometry": {"type": "Point", "coordinates": [-96.34305005607027, 30.612132142150443]}, "properties": {"id": "regular-6751", "kind": "regular", "rack_type": "Coat Hanger", "typequantity": "6", "capacity": 60, "zone_id": "zone-062", "zone_dist_m": 88.9}}, {"type": "Feature", "geometry": {"type": "Point", "coordinates": [-96.34501012197283, 30.61793153670636]}, "properties": {"id": "regular-6752", "kind": "regular", "rack_type": "Coat Hanger", "typequantity": "1", "capacity": 10, "zone_id": "zone-060", "zone_dist_m": 43.6}}, {"type": "Feature", "geometry": {"type": "Point", "coordinates": [-96.34606156858122, 30.600828671542228]}, "properties": {"id": "regular-6753", "kind": "regular", "rack_type": "Coat Hanger", "typequantity": "20", "capacity": 2, "zone_id": "zone-090", "zone_dist_m": 0.1}}, {"type": "Feature", "geometry": {"type": "Point", "coordinates": [-96.34576677817309, 30.615690833700576]}, "properties": {"id": "regular-6758", "kind": "regular", "rack_type": "Coat Hanger", "typequantity": "3", "capacity": 30, "zone_id": "zone-018", "zone_dist_m": 28.7}}, {"type": "Feature", "geometry": {"type": "Point", "coordinates": [-96.34720243077528, 30.60268606271187]}, "properties": {"id": "regular-6759", "kind": "regular", "rack_type": "Coat Hanger", "typequantity": "15", "capacity": 150, "zone_id": "zone-091", "zone_dist_m": 0.0}}, {"type": "Feature", "geometry": {"type": "Point", "coordinates": [-96.34874400195625, 30.611497172491855]}, "properties": {"id": "regular-6760", "kind": "regular", "rack_type": "Coat Hanger", "typequantity": "6", "capacity": 60, "zone_id": "zone-038", "zone_dist_m": 41.4}}, {"type": "Feature", "geometry": {"type": "Point", "coordinates": [-96.34384403206995, 30.609001322380735]}, "properties": {"id": "regular-6761", "kind": "regular", "rack_type": "Coat Hanger", "typequantity": "30", "capacity": 220, "zone_id": "zone-005", "zone_dist_m": 8.5}}]}